IRIDIUM 159             
1 43578U 18061K   23331.74997235  .00000639  00000+0  22095-3 0  9999
2 43578  86.3960  86.4072 0001973  94.9647 265.1774 14.34223016279733
IRIDIUM 180             
1 43922U 19002A   23332.09830919  .00000526  00000+0  18060-3 0  9994
2 43922  86.3993  23.1347 0002116  89.4111 270.7327 14.34223672255435
IRIDIUM 176             
1 43923U 19002B   23332.11795097  .00001930  00000+0  30206-3 0  9991
2 43923  86.6123  23.1591 0002363  92.4552 267.6935 14.72268482262115
IRIDIUM 168             
1 43924U 19002C   23332.09197173  .00000520  00000+0  17872-3 0  9998
2 43924  86.3994  23.1885 0002006  91.4182 268.7243 14.34221657255372
IRIDIUM 173             
1 43925U 19002D   23332.07929314  .00000526  00000+0  18059-3 0  9991
2 43925  86.3991  23.1209 0002018  96.6532 263.4893 14.34224988255361
IRIDIUM 169             
1 43926U 19002E   23331.78756238  .00000782  00000+0  24921-3 0  9991
2 43926  86.4245  54.8481 0003881 143.6865 216.4597 14.38608352256173
IRIDIUM 172             
1 43927U 19002F   23331.65434100  .00000505  00000+0  17332-3 0  9990
2 43927  86.3993  23.3035 0002059  91.1938 268.9494 14.34222616255306
IRIDIUM 175             
1 43928U 19002G   23331.63595363  .00001944  00000+0  30427-3 0  9996
2 43928  86.1525   7.9608 0002395  93.5644 266.5846 14.72254832262033
